STARLINK-4091           
1 52830U 22062A   26068.31957040 -.00001626  00000+0 -84085-4 0  9996
2 52830  53.2163  35.9739 0001524  91.0813 269.0354 15.08840490205724
LEMUR-2-AHMED-ASRAR     
1 60576U 24149DN  26068.73265438  .00013045  00000+0  79773-3 0  9992
2 60576  97.7021 152.9847 0001633  18.5035 341.6253 15.10376432 85541
